{"type": "FeatureCollection", "features": [ {"type": "Feature", "properties": {"norad_id": 34375, "name": "IRIDIUM 33 DEB", "group": "iridium-33-debris", "lat": -55.8953400156723, "lon": -178.4931237336033, "alt_km": 899.8194698234138, "timestamp": "2025-12-02T13:52:17.646120+00:00", "meta": {"OBJECT_NAME": "IRIDIUM 33 DEB", "OBJECT_ID": "1997-051FT", "EPOCH": "2025-12-02T01:18:17.719200", "MEAN_MOTION": 14.17961976, "ECCENTRICITY": 0.01023658, "INCLINATION": 86.4333, "RA_OF_ASC_NODE": 187.0026, "ARG_OF_PERICENTER": 160.3927, "MEAN_ANOMALY": 351.7564, "EPHEMERIS_TYPE": 0, "CLASSIFICATION_TYPE": "U", "NORAD_CAT_ID": 34375, "ELEMENT_SET_NO": 999, "REV_AT_EPOCH": 86560, "BSTAR": 0.00046830706, "MEAN_MOTION_DOT": 1.028e-05, "MEAN_MOTION_DDOT": 0}, "tle": {"line1": "1 34375U 97051FT  25336.05437175  .00001028  00000+0  46831-3 0  9990", "line2": "2 34375  86.4333 187.0026 0102365 160.3927 351.7564 14.17961976865607"}}, "geometry": {"type": "Point", "coordinates": [-178.4931237336033, -55.8953400156723]}}, {"type": "Feature", "properties": {"norad_id": 34376, "name": "IRIDIUM 33 DEB", "group": "iridium-33-debris", "lat": 49.04254715264655, "lon": -173.16784788583007, "alt_km": 675.2669590232472, "timestamp": "2025-12-02T13:52:17.646131+00:00", "meta": {"OBJECT_NAME": "IRIDIUM 33 DEB", "OBJECT_ID": "1997-051FU", "EPOCH": "2025-12-02T03:25:12.488160", "MEAN_MOTION": 14.62320389, "ECCENTRICITY": 0.00259524, "INCLINATION": 86.2999, "RA_OF_ASC_NODE": 11.3033, "ARG_OF_PERICENTER": 203.051, "MEAN_ANOMALY": 156.9539, "EPHEMERIS_TYPE": 0, "CLASSIFICATION_TYPE": "U", "NORAD_CAT_ID": 34376, "ELEMENT_SET_NO": 999, "REV_AT_EPOCH": 87852, "BSTAR": 0.0016838438, "MEAN_MOTION_DOT": 8.565e-05, "MEAN_MOTION_DDOT": 0}, "tle": {"line1": "1 34376U 97051FU  25336.14250565  .00008565  00000+0  16838-2 0  9993", "line2": "2 34376  86.2999  11.3033 0025952 203.0510 156.9539 14.62320389878529"}}, "geometry": {"type": "Point", "coordinates": [-173.16784788583007, 49.04254715264655]}}, {"type": "Feature", "properties": {"norad_id": 34486, "name": "IRIDIUM 33 DEB", "group": "iridium-33-debris", "lat": -42.90001178592456, "lon": -159.92877908328649, "alt_km": 586.9727544277748, "timestamp": "2025-12-02T13:52:17.646141+00:00", "meta": {"OBJECT_NAME": "IRIDIUM 33 DEB", "OBJECT_ID": "1997-051GB", "EPOCH": "2025-12-02T03:28:52.308768", "MEAN_MOTION": 14.95027296, "ECCENTRICITY": 0.00126834, "INCLINATION": 86.3954, "RA_OF_ASC_NODE": 16.9124, "ARG_OF_PERICENTER": 147.5491, "MEAN_ANOMALY": 266.6737, "EPHEMERIS_TYPE": 0, "CLASSIFICATION_TYPE": "U", "NORAD_CAT_ID": 34486, "ELEMENT_SET_NO": 999, "REV_AT_EPOCH": 88828, "BSTAR": 0.0024552903, "MEAN_MOTION_DOT": 0.00026994, "MEAN_MOTION_DDOT": 0}, "tle": {"line1": "1 34486U 97051GB  25336.14504987  .00026994  00000+0  24553-2 0  9994", "line2": "2 34486  86.3954  16.9124 0012683 147.5491 266.6737 14.95027296888282"}}, "geometry": {"type": "Point", "coordinates": [-159.92877908328649, -42.90001178592456]}}, {"type": "Feature", "properties": {"norad_id": 34487, "name": "IRIDIUM 33 DEB", "group": "iridium-33-debris", "lat": -14.064555599124574, "lon": 15.834408297158319, "alt_km": 775.1626322418633, "timestamp": "2025-12-02T13:52:17.646152+00:00", "meta": {"OBJECT_NAME": "IRIDIUM 33 DEB", "OBJECT_ID": "1997-051GC", "EPOCH": "2025-12-01T15:14:00.920832", "MEAN_MOTION": 14.43192153, "ECCENTRICITY": 0.00317068, "INCLINATION": 86.3445, "RA_OF_ASC_NODE": 17.1579, "ARG_OF_PERICENTER": 163.7221, "MEAN_ANOMALY": 324.8136, "EPHEMERIS_TYPE": 0, "CLASSIFICATION_TYPE": "U", "NORAD_CAT_ID": 34487, "ELEMENT_SET_NO": 999, "REV_AT_EPOCH": 88088, "BSTAR": 0.0002149908, "MEAN_MOTION_DOT": 7.47e-06, "MEAN_MOTION_DDOT": 0}, "tle": {"line1": "1 34487U 97051GC  25335.63473288  .00000747  00000+0  21499-3 0  9992", "line2": "2 34487  86.3445  17.1579 0031706 163.7221 324.8136 14.43192153880889"}}, "geometry": {"type": "Point", "coordinates": [15.834408297158319, -14.064555599124574]}}, {"type": "Feature", "properties": {"norad_id": 34488, "name": "IRIDIUM 33 DEB", "group": "iridium-33-debris", "lat": 68.08686027599724, "lon": 121.63828698637589, "alt_km": 474.3302423866762, "timestamp": "2025-12-02T13:52:17.646162+00:00", "meta": {"OBJECT_NAME": "IRIDIUM 33 DEB", "OBJECT_ID": "1997-051GD", "EPOCH": "2025-12-01T09:03:02.520864", "MEAN_MOTION": 15.25513419, "ECCENTRICITY": 0.00159486, "INCLINATION": 86.3247, "RA_OF_ASC_NODE": 311.4245, "ARG_OF_PERICENTER": 69.089, "MEAN_ANOMALY": 291.2062, "EPHEMERIS_TYPE": 0, "CLASSIFICATION_TYPE": "U", "NORAD_CAT_ID": 34488, "ELEMENT_SET_NO": 999, "REV_AT_EPOCH": 89066, "BSTAR": 0.005113685, "MEAN_MOTION_DOT": 0.00132074, "MEAN_MOTION_DDOT": 0}, "tle": {"line1": "1 34488U 97051GD  25335.37711251  .00132074  00000+0  51137-2 0  9999", "line2": "2 34488  86.3247 311.4245 0015948  69.0890 291.2062 15.25513419890665"}}, "geometry": {"type": "Point", "coordinates": [121.63828698637589, 68.08686027599724]}}, {"type": "Feature", "properties": {"norad_id": 34492, "name": "IRIDIUM 33 DEB", "group": "iridium-33-debris", "lat": 4.520239942908068, "lon": -20.98344727423151, "alt_km": 815.8491845814069, "timestamp": "2025-12-02T13:52:17.646173+00:00", "meta": {"OBJECT_NAME": "IRIDIUM 33 DEB", "OBJECT_ID": "1997-051GH", "EPOCH": "2025-12-01T11:37:20.497728", "MEAN_MOTION": 14.25192114, "ECCENTRICITY": 0.01904541, "INCLINATION": 86.4698, "RA_OF_ASC_NODE": 339.1786, "ARG_OF_PERICENTER": 274.674, "MEAN_ANOMALY": 239.6935, "EPHEMERIS_TYPE": 0, "CLASSIFICATION_TYPE": "U", "NORAD_CAT_ID": 34492, "ELEMENT_SET_NO": 999, "REV_AT_EPOCH": 84898, "BSTAR": 0.0079818839, "MEAN_MOTION_DOT": 0.00022727, "MEAN_MOTION_DDOT": 0}, "tle": {"line1": "1 34492U 97051GH  25335.48426502  .00022727  00000+0  79819-2 0  9998", "line2": "2 34492  86.4698 339.1786 0190454 274.6740 239.6935 14.25192114848989"}}, "geometry": {"type": "Point", "coordinates": [-20.98344727423151, 4.520239942908068]}}, {"type": "Feature", "properties": {"norad_id": 34497, "name": "IRIDIUM 33 DEB", "group": "iridium-33-debris", "lat": 9.082321705732523, "lon": -123.85424596481477, "alt_km": 855.5382278718953, "timestamp": "2025-12-02T13:52:17.646184+00:00", "meta": {"OBJECT_NAME": "IRIDIUM 33 DEB", "OBJECT_ID": "1997-051GN", "EPOCH": "2025-12-01T05:14:48.727392", "MEAN_MOTION": 14.27398963, "ECCENTRICITY": 0.0080081, "INCLINATION": 86.2784, "RA_OF_ASC_NODE": 57.3223, "ARG_OF_PERICENTER": 16.9295, "MEAN_ANOMALY": 12.6117, "EPHEMERIS_TYPE": 0, "CLASSIFICATION_TYPE": "U", "NORAD_CAT_ID": 34497, "ELEMENT_SET_NO": 999, "REV_AT_EPOCH": 86719, "BSTAR": 0.00069242, "MEAN_MOTION_DOT": 1.774e-05, "MEAN_MOTION_DDOT": 0}, "tle": {"line1": "1 34497U 97051GN  25335.21861953  .00001774  00000+0  69242-3 0  9996", "line2": "2 34497  86.2784  57.3223 0080081  16.9295  12.6117 14.27398963867196"}}, "geometry": {"type": "Point", "coordinates": [-123.85424596481477, 9.082321705732523]}}, {"type": "Feature", "properties": {"norad_id": 34508, "name": "IRIDIUM 33 DEB", "group": "iridium-33-debris", "lat": -69.44659776899938, "lon": 97.20013635989632, "alt_km": 766.6852578702601, "timestamp": "2025-12-02T13:52:17.646194+00:00", "meta": {"OBJECT_NAME": "IRIDIUM 33 DEB", "OBJECT_ID": "1997-051GZ", "EPOCH": "2025-12-01T19:49:48.097632", "MEAN_MOTION": 14.38250778, "ECCENTRICITY": 0.00653798, "INCLINATION": 86.3693, "RA_OF_ASC_NODE": 107.2683, "ARG_OF_PERICENTER": 208.4513, "MEAN_ANOMALY": 151.3111, "EPHEMERIS_TYPE": 0, "CLASSIFICATION_TYPE": "U", "NORAD_CAT_ID": 34508, "ELEMENT_SET_NO": 999, "REV_AT_EPOCH": 87152, "BSTAR": 0.0017382861, "MEAN_MOTION_DOT": 5.435e-05, "MEAN_MOTION_DDOT": 0}, "tle": {"line1": "1 34508U 97051GZ  25335.82625113  .00005435  00000+0  17383-2 0  9998", "line2": "2 34508  86.3693 107.2683 0065379 208.4513 151.3111 14.38250778871528"}}, "geometry": {"type": "Point", "coordinates": [97.20013635989632, -69.44659776899938]}}, {"type": "Feature", "properties": {"norad_id": 34521, "name": "IRIDIUM 33 DEB", "group": "iridium-33-debris", "lat": -82.84344558242665, "lon": 4.7564002587255, "alt_km": 689.4841790971886, "timestamp": "2025-12-02T13:52:17.646204+00:00", "meta": {"OBJECT_NAME": "IRIDIUM 33 DEB", "OBJECT_ID": "1997-051HN", "EPOCH": "2025-12-02T04:24:22.923360", "MEAN_MOTION": 14.63207931, "ECCENTRICITY": 0.00012454, "INCLINATION": 86.3815, "RA_OF_ASC_NODE": 35.1943, "ARG_OF_PERICENTER": 303.8096, "MEAN_ANOMALY": 56.2997, "EPHEMERIS_TYPE": 0, "CLASSIFICATION_TYPE": "U", "NORAD_CAT_ID": 34521, "ELEMENT_SET_NO": 999, "REV_AT_EPOCH": 88318, "BSTAR": 0.0011053606, "MEAN_MOTION_DOT": 5.711e-05, "MEAN_MOTION_DDOT": 0}, "tle": {"line1": "1 34521U 97051HN  25336.18359865  .00005711  00000+0  11054-2 0  9997", "line2": "2 34521  86.3815  35.1943 0001245 303.8096  56.2997 14.63207931883186"}}, "geometry": {"type": "Point", "coordinates": [4.7564002587255, -82.84344558242665]}}, {"type": "Feature", "properties": {"norad_id": 34525, "name": "IRIDIUM 33 DEB", "group": "iridium-33-debris", "lat": 59.01807653631646, "lon": -134.8826309070234, "alt_km": 738.8617551591515, "timestamp": "2025-12-02T13:52:17.646214+00:00", "meta": {"OBJECT_NAME": "IRIDIUM 33 DEB", "OBJECT_ID": "1997-051HS", "EPOCH": "2025-12-02T05:14:17.417760", "MEAN_MOTION": 14.42862244, "ECCENTRICITY": 0.00064222, "INCLINATION": 86.3736, "RA_OF_ASC_NODE": 51.3338, "ARG_OF_PERICENTER": 119.2317, "MEAN_ANOMALY": 294.1675, "EPHEMERIS_TYPE": 0, "CLASSIFICATION_TYPE": "U", "NORAD_CAT_ID": 34525, "ELEMENT_SET_NO": 999, "REV_AT_EPOCH": 87936, "BSTAR": 0.00052041337, "MEAN_MOTION_DOT": 1.756e-05, "MEAN_MOTION_DDOT": 0}, "tle": {"line1": "1 34525U 97051HS  25336.21825715  .00001756  00000+0  52041-3 0  9994", "line2": "2 34525  86.3736  51.3338 0006422 119.2317 294.1675 14.42862244879369"}}, "geometry": {"type": "Point", "coordinates": [-134.8826309070234, 59.01807653631646]}}]}